ION SCV-017             
1 63230U 25052W   26068.71648816  .00006457  00000+0  24539-3 0  9998
2 63230  97.4016 324.7516 0023746  44.9875 315.3282 15.26881798 54851
STARLINK-34078          
1 64012U 25101U   26068.20080533  .00028795  00000+0  10502-2 0  9995
2 64012  43.0028   0.4462 0001233 261.5037  98.5675 15.27629618 46985
